start=new Date('2022-04-10T00:00:00.000Z').valueOf();
sats=[{"OBJECT_NAME":"STARLINK-2215","TLE_LINE2":"2 48567  53.0547  81.1586 0001649  64.5338 295.5821 15.06406443 49529","PERIAPSIS":"546.052","CENTER_NAME":"EARTH","LAUNCH_DATE":"2021-05-15","COUNTRY_CODE":"US","PERIOD":"95.592","OBJECT_TYPE":"PAYLOAD","MEAN_MOTION_DOT":"0.00003256","ARG_OF_PERICENTER":"64.5338","RCS_SIZE":"LARGE","TIME_SYSTEM":"UTC","NORAD_CAT_ID":"48567","EPHEMERIS_TYPE":"0","SITE":"AFETR","MEAN_ELEMENT_THEORY":"SGP4","BSTAR":"0.00023733000000","INCLINATION":"53.0547","TLE_LINE1":"1 48567U 21041Q   22099.68444009  .00003256  00000-0  23733-3 0  9992","REF_FRAME":"TEME","DECAY_DATE":null,"ECCENTRICITY":"0.00016490","GP_ID":"200862476","APOAPSIS":"548.336","EPOCH":"2022-04-09T16:25:35.623776","REV_AT_EPOCH":"4952","CLASSIFICATION_TYPE":"U","MEAN_MOTION_DDOT":"0.0000000000000","SEMIMAJOR_AXIS":"6925.329","ELEMENT_SET_NO":"999","FILE":"3395351","MEAN_ANOMALY":"295.5821","MEAN_MOTION":"15.06406443","RA_OF_ASC_NODE":"81.1586","OBJECT_ID":"2021-041Q"},{"OBJECT_NAME":"STARLINK-2217","LAUNCH_DATE":"2021-05-15","CENTER_NAME":"EARTH","PERIAPSIS":"546.204","TLE_LINE2":"2 48568  53.0559  71.4072 0001480  66.2645 293.8499 15.06394984 49650","COUNTRY_CODE":"US","PERIOD":"95.592","MEAN_MOTION_DOT":"0.00000640","OBJECT_TYPE":"PAYLOAD","ARG_OF_PERICENTER":"66.2645","NORAD_CAT_ID":"48568","EPHEMERIS_TYPE":"0","TIME_SYSTEM":"UTC","RCS_SIZE":"MEDIUM","BSTAR":"0.00006187800000","MEAN_ELEMENT_THEORY":"SGP4","SITE":"AFETR","TLE_LINE1":"1 48568U 21041R   22099.63007137  .00000640  00000-0  61878-4 0  9992","INCLINATION":"53.0559","REF_FRAME":"TEME","GP_ID":"200862731","ECCENTRICITY":"0.00014800","DECAY_DATE":null,"APOAPSIS":"548.254","REV_AT_EPOCH":"4965","EPOCH":"2022-04-09T15:07:18.166368","MEAN_MOTION_DDOT":"0.0000000000000","CLASSIFICATION_TYPE":"U","SEMIMAJOR_AXIS":"6925.364","OBJECT_ID":"2021-041R","RA_OF_ASC_NODE":"71.4072","MEAN_ANOMALY":"293.8499","FILE":"3395351","ELEMENT_SET_NO":"999","MEAN_MOTION":"15.06394984"},{"ARG_OF_PERICENTER":"67.2899","OBJECT_TYPE":"PAYLOAD","MEAN_MOTION_DOT":"-0.00003933","MEAN_ELEMENT_THEORY":"SGP4","BSTAR":"-0.00024548000000","SITE":"AFETR","NORAD_CAT_ID":"48569","EPHEMERIS_TYPE":"0","TIME_SYSTEM":"UTC","RCS_SIZE":"LARGE","LAUNCH_DATE":"2021-05-15","TLE_LINE2":"2 48569  53.0544  71.3041 0001824  67.2899 292.8283 15.06373131 49666","PERIAPSIS":"546.033","CENTER_NAME":"EARTH","OBJECT_NAME":"STARLINK-2219","PERIOD":"95.594","COUNTRY_CODE":"US","SEMIMAJOR_AXIS":"6925.431","MEAN_MOTION_DDOT":"0.0000000000000","CLASSIFICATION_TYPE":"U","OBJECT_ID":"2021-041S","RA_OF_ASC_NODE":"71.3041","FILE":"3395351","MEAN_ANOMALY":"292.8283","ELEMENT_SET_NO":"999","MEAN_MOTION":"15.06373131","ECCENTRICITY":"0.00018240","GP_ID":"200862972","DECAY_DATE":null,"REF_FRAME":"TEME","TLE_LINE1":"1 48569U 21041S   22099.65589399 -.00003933  00000-0 -24548-3 0  9992","INCLINATION":"53.0544","REV_AT_EPOCH":"4966","EPOCH":"2022-04-09T15:44:29.240736","APOAPSIS":"548.559"},{"OBJECT_NAME":"STARLINK-2220","LAUNCH_DATE":"2021-05-15","TLE_LINE2":"2 48570  53.0545  81.3379 0001613  57.3007 302.8138 15.06398379 49517","PERIAPSIS":"546.101","CENTER_NAME":"EARTH","COUNTRY_CODE":"US","PERIOD":"95.592","OBJECT_TYPE":"PAYLOAD","MEAN_MOTION_DOT":"0.00001177","ARG_OF_PERICENTER":"57.3007","EPHEMERIS_TYPE":"0","NORAD_CAT_ID":"48570","TIME_SYSTEM":"UTC","RCS_SIZE":"LARGE","MEAN_ELEMENT_THEORY":"SGP4","BSTAR":"0.00009789300000","SITE":"AFETR","TLE_LINE1":"1 48570U 21041T   22099.64389224  .00001177  00000-0  97893-4 0  9998","INCLINATION":"53.0545","REF_FRAME":"TEME","ECCENTRICITY":"0.00016130","GP_ID":"200863703","DECAY_DATE":null,"APOAPSIS":"548.336","REV_AT_EPOCH":"4951","EPOCH":"2022-04-09T15:27:12.289536","MEAN_MOTION_DDOT":"0.0000000000000","CLASSIFICATION_TYPE":"U","SEMIMAJOR_AXIS":"6925.354","RA_OF_ASC_NODE":"81.3379","OBJECT_ID":"2021-041T","ELEMENT_SET_NO":"999","FILE":"3395351","MEAN_ANOMALY":"302.8138","MEAN_MOTION":"15.06398379"},{"REF_FRAME":"TEME","TLE_LINE1":"1 48571U 21041U   22099.65126993 -.00000216  00000-0  43901-5 0  9998","INCLINATION":"53.0548","DECAY_DATE":null,"ECCENTRICITY":"0.00015100","GP_ID":"200861977","APOAPSIS":"548.271","EPOCH":"2022-04-09T15:37:49.721952","REV_AT_EPOCH":"4952","MEAN_MOTION_DDOT":"0.0000000000000","CLASSIFICATION_TYPE":"U","SEMIMAJOR_AXIS":"6925.361","FILE":"3395351","ELEMENT_SET_NO":"999","MEAN_MOTION":"15.06396030","MEAN_ANOMALY":"299.2214","OBJECT_ID":"2021-041U","RA_OF_ASC_NODE":"81.3193","OBJECT_NAME":"STARLINK-2221","CENTER_NAME":"EARTH","PERIAPSIS":"546.180","TLE_LINE2":"2 48571  53.0548  81.3193 0001510  60.8926 299.2214 15.06396030 49527","LAUNCH_DATE":"2021-05-15","COUNTRY_CODE":"US","PERIOD":"95.592","MEAN_MOTION_DOT":"-0.00000216","OBJECT_TYPE":"PAYLOAD","ARG_OF_PERICENTER":"60.8926","TIME_SYSTEM":"UTC","RCS_SIZE":"LARGE","EPHEMERIS_TYPE":"0","NORAD_CAT_ID":"48571","SITE":"AFETR","BSTAR":"0.00000439010000","MEAN_ELEMENT_THEORY":"SGP4"},{"OBJECT_TYPE":"PAYLOAD","MEAN_MOTION_DOT":"0.00000697","ARG_OF_PERICENTER":"70.5076","RCS_SIZE":"LARGE","TIME_SYSTEM":"UTC","EPHEMERIS_TYPE":"0","NORAD_CAT_ID":"48572","SITE":"AFETR","MEAN_ELEMENT_THEORY":"SGP4","BSTAR":"0.00006568300000","OBJECT_NAME":"STARLINK-2222","PERIAPSIS":"546.168","TLE_LINE2":"2 48572  53.0553  81.3304 0001517  70.5076 289.6077 15.06398213 49524","CENTER_NAME":"EARTH","LAUNCH_DATE":"2021-05-15","COUNTRY_CODE":"US","PERIOD":"95.592","CLASSIFICATION_TYPE":"U","MEAN_MOTION_DDOT":"0.0000000000000","SEMIMAJOR_AXIS":"6925.354","ELEMENT_SET_NO":"999","FILE":"3395351","MEAN_ANOMALY":"289.6077","MEAN_MOTION":"15.06398213","RA_OF_ASC_NODE":"81.3304","OBJECT_ID":"2021-041V","TLE_LINE1":"1 48572U 21041V   22099.64758238  .00000697  00000-0  65683-4 0  9993","INCLINATION":"53.0553","REF_FRAME":"TEME","DECAY_DATE":null,"GP_ID":"200863231","ECCENTRICITY":"0.00015170","APOAPSIS":"548.270","EPOCH":"2022-04-09T15:32:31.117632","REV_AT_EPOCH":"4952"},{"SEMIMAJOR_AXIS":"6925.395","CLASSIFICATION_TYPE":"U","MEAN_MOTION_DDOT":"0.0000000000000","OBJECT_ID":"2021-041W","RA_OF_ASC_NODE":"71.4101","FILE":"3395351","MEAN_MOTION":"15.06384811","ELEMENT_SET_NO":"999","MEAN_ANOMALY":"307.9493","ECCENTRICITY":"0.00016600","GP_ID":"200863472","DECAY_DATE":null,"INCLINATION":"53.0549","TLE_LINE1":"1 48573U 21041W   22099.62639496 -.00000887  00000-0 -40657-4 0  9993","REF_FRAME":"TEME","REV_AT_EPOCH":"4965","EPOCH":"2022-04-09T15:02:00.524544","APOAPSIS":"548.410","ARG_OF_PERICENTER":"52.1646","OBJECT_TYPE":"PAYLOAD","MEAN_MOTION_DOT":"-0.00000887","MEAN_ELEMENT_THEORY":"SGP4","BSTAR":"-0.00004065700000","SITE":"AFETR","NORAD_CAT_ID":"48573","EPHEMERIS_TYPE":"0","RCS_SIZE":"LARGE","TIME_SYSTEM":"UTC","LAUNCH_DATE":"2021-05-15","PERIAPSIS":"546.110","TLE_LINE2":"2 48573  53.0549  71.4101 0001660  52.1646 307.9493 15.06384811 49652","CENTER_NAME":"EARTH","OBJECT_NAME":"STARLINK-2224","PERIOD":"95.593","COUNTRY_CODE":"US"},{"ARG_OF_PERICENTER":"61.3712","MEAN_MOTION_DOT":"0.00003411","OBJECT_TYPE":"PAYLOAD","BSTAR":"0.00024777000000","MEAN_ELEMENT_THEORY":"SGP4","SITE":"AFETR","NORAD_CAT_ID":"48574","EPHEMERIS_TYPE":"0","RCS_SIZE":"LARGE","TIME_SYSTEM":"UTC","LAUNCH_DATE":"2021-05-15","CENTER_NAME":"EARTH","PERIAPSIS":"546.173","TLE_LINE2":"2 48574  53.0554  40.1137 0001503  61.3712 283.9857 15.06400033  3611","OBJECT_NAME":"STARLINK-2225","PERIOD":"95.592","COUNTRY_CODE":"US","SEMIMAJOR_AXIS":"6925.348","CLASSIFICATION_TYPE":"U","MEAN_MOTION_DDOT":"0.0000000000000","OBJECT_ID":"2021-041X","RA_OF_ASC_NODE":"40.1137","ELEMENT_SET_NO":"999","FILE":"3395351","MEAN_MOTION":"15.06400033","MEAN_ANOMALY":"283.9857","ECCENTRICITY":"0.00015030","GP_ID":"200864203","DECAY_DATE":null,"TLE_LINE1":"1 48574U 21041X   22099.91667824  .00003411  00000-0  24777-3 0  9990","INCLINATION":"53.0554","REF_FRAME":"TEME","REV_AT_EPOCH":"361","EPOCH":"2022-04-09T22:00:00.999936","APOAPSIS":"548.254"},{"SITE":"AFETR","MEAN_ELEMENT_THEORY":"SGP4","BSTAR":"-0.00053743000000","TIME_SYSTEM":"UTC","RCS_SIZE":"LARGE","EPHEMERIS_TYPE":"0","NORAD_CAT_ID":"48575","ARG_OF_PERICENTER":"69.9446","OBJECT_TYPE":"PAYLOAD","MEAN_MOTION_DOT":"-0.00008278","PERIOD":"95.592","COUNTRY_CODE":"US","TLE_LINE2":"2 48575  53.0561  30.1271 0001586  69.9446 310.3898 15.06403926  3611","PERIAPSIS":"546.103","CENTER_NAME":"EARTH","LAUNCH_DATE":"2021-05-15","OBJECT_NAME":"STARLINK-2227","ELEMENT_SET_NO":"999","FILE":"3395351","MEAN_MOTION":"15.06403926","MEAN_ANOMALY":"310.3898","RA_OF_ASC_NODE":"30.1271","OBJECT_ID":"2021-041Y","SEMIMAJOR_AXIS":"6925.337","MEAN_MOTION_DDOT":"0.0000000000000","CLASSIFICATION_TYPE":"U","EPOCH":"2022-04-09T22:00:00.999936","REV_AT_EPOCH":"361","APOAPSIS":"548.300","DECAY_DATE":null,"ECCENTRICITY":"0.00015860","GP_ID":"200862477","INCLINATION":"53.0561","TLE_LINE1":"1 48575U 21041Y   22099.91667824 -.00008278  00000-0 -53743-3 0  9994","REF_FRAME":"TEME"},{"SITE":"AFETR","MEAN_ELEMENT_THEORY":"SGP4","BSTAR":"0.00048970000000","RCS_SIZE":"LARGE","TIME_SYSTEM":"UTC","EPHEMERIS_TYPE":"0","NORAD_CAT_ID":"48576","ARG_OF_PERICENTER":"56.4816","OBJECT_TYPE":"PAYLOAD","MEAN_MOTION_DOT":"0.00007018","PERIOD":"95.593","COUNTRY_CODE":"US","TLE_LINE2":"2 48576  53.0591  45.0565 0001743  56.4816 156.2417 15.06390376  3611","PERIAPSIS":"546.036","CENTER_NAME":"EARTH","LAUNCH_DATE":"2021-05-15","OBJECT_NAME":"STARLINK-2228","ELEMENT_SET_NO":"999","FILE":"3395351","MEAN_ANOMALY":"156.2417","MEAN_MOTION":"15.06390376","RA_OF_ASC_NODE":"45.0565","OBJECT_ID":"2021-041Z","SEMIMAJOR_AXIS":"6925.378","MEAN_MOTION_DDOT":"0.0000000000000","CLASSIFICATION_TYPE":"U","EPOCH":"2022-04-09T22:00:00.999936","REV_AT_EPOCH":"361","APOAPSIS":"548.450","DECAY_DATE":null,"ECCENTRICITY":"0.00017430","GP_ID":"200862732","TLE_LINE1":"1 48576U 21041Z   22099.91667824  .00007018  00000-0  48970-3 0  9990","INCLINATION":"53.0591","REF_FRAME":"TEME"}];
